{"type":"FeatureCollection","features":[{"type":"Feature","properties":{"name":"Zhuozhou","pop_max":628000,"min_zoom":7,"rank_max":11},"geometry":{"type":"Point","coordinates":[115.789976,39.540053]}},{"type":"Feature","properties":{"name":"Jingzhou","pop_max":520000,"min_zoom":7,"rank_max":11},"geometry":{"type":"Point","coordinates":[112.229986,30.320021]}},{"type":"Feature","properties":{"name":"Xuanhua","pop_max":409745,"min_zoom":7,"rank_max":10},"geometry":{"type":"Point","coordinates":[115.024338,40.594407]}},{"type":"Feature","properties":{"name":"Hangu","pop_max":332793,"min_zoom":7,"rank_max":10},"geometry":{"type":"Point","coordinates":[117.776986,39.231958]}},{"type":"Feature","properties":{"name":"Tongren","pop_max":118290,"min_zoom":6.1,"rank_max":9},"geometry":{"type":"Point","coordinates":[109.130021,27.680415]}},{"type":"Feature","properties":{"name":"Changping","pop_max":614821,"min_zoom":6.7,"rank_max":11},"geometry":{"type":"Point","coordinates":[116.194396,40.224766]}},{"type":"Feature","properties":{"name":"Zicheng","pop_max":237042,"min_zoom":6.7,"rank_max":10},"geometry":{"type":"Point","coordinates":[111.500005,30.300436]}},{"type":"Feature","properties":{"name":"Shishou","pop_max":231787,"min_zoom":6.7,"rank_max":10},"geometry":{"type":"Point","coordinates":[112.400002,29.700395]}},{"type":"Feature","properties":{"name":"Puqi","pop_max":205164,"min_zoom":6.7,"rank_max":10},"geometry":{"type":"Point","coordinates":[113.880015,29.72042]}},{"type":"Feature","properties":{"name":"Jinshi","pop_max":274000,"min_zoom":6.1,"rank_max":10},"geometry":{"type":"Point","coordinates":[111.851715,29.632105]}},{"type":"Feature","properties":{"name":"Zhijiang","pop_max":113907,"min_zoom":6.7,"rank_max":9},"geometry":{"type":"Point","coordinates":[109.678049,27.440946]}},{"type":"Feature","properties":{"name":"Xiangtan","pop_max":2586948,"min_zoom":6.7,"rank_max":12},"geometry":{"type":"Point","coordinates":[112.900023,27.850431]}},{"type":"Feature","properties":{"name":"Chengde","pop_max":449325,"min_zoom":6.1,"rank_max":10},"geometry":{"type":"Point","coordinates":[117.93,40.96038]}},{"type":"Feature","properties":{"name":"Baoding","pop_max":1107000,"min_zoom":6.7,"rank_max":12},"geometry":{"type":"Point","coordinates":[115.468897,38.85834]}},{"type":"Feature","properties":{"name":"Dingzhou","pop_max":152934,"min_zoom":6.7,"rank_max":9},"geometry":{"type":"Point","coordinates":[114.999998,38.500427]}},{"type":"Feature","properties":{"name":"Jianmen","pop_max":1708000,"min_zoom":6,"rank_max":12},"geometry":{"type":"Point","coordinates":[113.158061,30.651999]}},{"type":"Feature","properties":{"name":"Yichang","pop_max":875000,"min_zoom":6,"rank_max":11},"geometry":{"type":"Point","coordinates":[111.278073,30.701918]}},{"type":"Feature","properties":{"name":"Xiantao","pop_max":1556000,"min_zoom":6,"rank_max":12},"geometry":{"type":"Point","coordinates":[113.438096,30.372352]}},{"type":"Feature","properties":{"name":"Zhuzhou","pop_max":1080000,"min_zoom":6,"rank_max":12},"geometry":{"type":"Point","coordinates":[113.148088,27.831938]}},{"type":"Feature","properties":{"name":"Yiyang","pop_max":1352000,"min_zoom":6,"rank_max":12},"geometry":{"type":"Point","coordinates":[112.328086,28.602356]}},{"type":"Feature","properties":{"name":"Changde","pop_max":1469000,"min_zoom":6,"rank_max":12},"geometry":{"type":"Point","coordinates":[111.6781,29.031943]}},{"type":"Feature","properties":{"name":"Shaoyang","pop_max":45617,"min_zoom":6,"rank_max":7},"geometry":{"type":"Point","coordinates":[111.200075,26.999992]}},{"type":"Feature","properties":{"name":"Langfang","pop_max":810000,"min_zoom":6,"rank_max":11},"geometry":{"type":"Point","coordinates":[116.678053,39.52231]}},{"type":"Feature","properties":{"name":"Zhangjiakou","pop_max":1046000,"min_zoom":6,"rank_max":12},"geometry":{"type":"Point","coordinates":[114.852027,40.805255]}},{"type":"Feature","properties":{"name":"Tangshan","pop_max":1879000,"min_zoom":6,"rank_max":12},"geometry":{"type":"Point","coordinates":[118.192431,39.626283]}},{"type":"Feature","properties":{"name":"Yichun","pop_max":982000,"min_zoom":6,"rank_max":11},"geometry":{"type":"Point","coordinates":[114.398054,27.835279]}},{"type":"Feature","properties":{"name":"Yueyang","pop_max":826000,"min_zoom":5.6,"rank_max":11},"geometry":{"type":"Point","coordinates":[113.098065,29.381999]}},{"type":"Feature","properties":{"name":"Hengyang","pop_max":1016000,"min_zoom":5.6,"rank_max":12},"geometry":{"type":"Point","coordinates":[112.58807,26.881971]}},{"type":"Feature","properties":{"name":"Pingxiang","pop_max":961000,"min_zoom":5,"rank_max":11},"geometry":{"type":"Point","coordinates":[113.848097,27.621951]}},{"type":"Feature","properties":{"name":"Wuhan","pop_max":7243000,"min_zoom":4,"rank_max":13},"geometry":{"type":"Point","coordinates":[114.268071,30.581977]}}]}